start=new Date('2022-02-23T00:00:00.000Z').valueOf();
sats=[{"GP_ID":"196686140","ECCENTRICITY":"0.00015030","TIME_SYSTEM":"UTC","FILE":"3314780","LAUNCH_DATE":"2021-11-13","REV_AT_EPOCH":"361","ARG_OF_PERICENTER":"29.1677","COUNTRY_CODE":"US","OBJECT_NAME":"STARLINK-3124","TLE_LINE1":"1 49456U 21104BA  22053.91667824 -.00048043  00000-0 -30180-2 0  9996","MEAN_ANOMALY":"28.4145","MEAN_MOTION_DOT":"-0.00048043","SITE":"AFETR","ELEMENT_SET_NO":"999","EPHEMERIS_TYPE":"0","TLE_LINE2":"2 49456  53.2170   4.1045 0001503  29.1677  28.4145 15.08873218  3610","SEMIMAJOR_AXIS":"6917.779","CENTER_NAME":"EARTH","BSTAR":"-0.00301800000000","INCLINATION":"53.2170","OBJECT_ID":"2021-104BA","CLASSIFICATION_TYPE":"U","MEAN_MOTION_DDOT":"0.0000000000000","OBJECT_TYPE":"PAYLOAD","NORAD_CAT_ID":"49456","DECAY_DATE":null,"MEAN_ELEMENT_THEORY":"SGP4","RCS_SIZE":"LARGE","APOAPSIS":"540.684","PERIOD":"95.435","RA_OF_ASC_NODE":"4.1045","EPOCH":"2022-02-22T22:00:00.999936","REF_FRAME":"TEME","PERIAPSIS":"538.604","MEAN_MOTION":"15.08873218"},{"ARG_OF_PERICENTER":"47.4120","REV_AT_EPOCH":"361","LAUNCH_DATE":"2021-11-13","TIME_SYSTEM":"UTC","FILE":"3314780","ECCENTRICITY":"0.00017920","GP_ID":"196686391","OBJECT_ID":"2021-104BB","INCLINATION":"53.2166","BSTAR":"-0.00004585900000","CENTER_NAME":"EARTH","SEMIMAJOR_AXIS":"6917.833","TLE_LINE2":"2 49457  53.2166   4.1064 0001792  47.4120  70.1483 15.08855497  3611","EPHEMERIS_TYPE":"0","MEAN_MOTION_DOT":"-0.00001018","SITE":"AFETR","ELEMENT_SET_NO":"999","TLE_LINE1":"1 49457U 21104BB  22053.91667824 -.00001018  00000-0 -45859-4 0  9999","MEAN_ANOMALY":"70.1483","OBJECT_NAME":"STARLINK-3132","COUNTRY_CODE":"US","RCS_SIZE":"LARGE","MEAN_ELEMENT_THEORY":"SGP4","DECAY_DATE":null,"NORAD_CAT_ID":"49457","OBJECT_TYPE":"PAYLOAD","MEAN_MOTION_DDOT":"0.0000000000000","CLASSIFICATION_TYPE":"U","MEAN_MOTION":"15.08855497","PERIAPSIS":"538.458","REF_FRAME":"TEME","EPOCH":"2022-02-22T22:00:00.999936","PERIOD":"95.437","RA_OF_ASC_NODE":"4.1064","APOAPSIS":"540.938"},{"CLASSIFICATION_TYPE":"U","MEAN_MOTION_DDOT":"0.0000000000000","OBJECT_TYPE":"PAYLOAD","NORAD_CAT_ID":"49458","DECAY_DATE":null,"MEAN_ELEMENT_THEORY":"SGP4","RCS_SIZE":"LARGE","APOAPSIS":"540.877","PERIOD":"95.437","RA_OF_ASC_NODE":"4.1053","EPOCH":"2022-02-22T22:00:00.999936","REF_FRAME":"TEME","PERIAPSIS":"538.584","MEAN_MOTION":"15.08844959","GP_ID":"196686642","ECCENTRICITY":"0.00016570","TIME_SYSTEM":"UTC","FILE":"3314780","LAUNCH_DATE":"2021-11-13","REV_AT_EPOCH":"361","ARG_OF_PERICENTER":"47.7162","COUNTRY_CODE":"US","OBJECT_NAME":"STARLINK-3156","TLE_LINE1":"1 49458U 21104BC  22053.91667824 -.00001195  00000-0 -57000-4 0  9997","MEAN_ANOMALY":"29.8040","ELEMENT_SET_NO":"999","SITE":"AFETR","MEAN_MOTION_DOT":"-0.00001195","EPHEMERIS_TYPE":"0","TLE_LINE2":"2 49458  53.2159   4.1053 0001657  47.7162  29.8040 15.08844959  3612","SEMIMAJOR_AXIS":"6917.865","CENTER_NAME":"EARTH","BSTAR":"-0.00005700000000","OBJECT_ID":"2021-104BC","INCLINATION":"53.2159"},{"BSTAR":"-0.00001720600000","CENTER_NAME":"EARTH","SEMIMAJOR_AXIS":"6917.849","TLE_LINE2":"2 49459  53.2172   4.1054 0001842  47.8285  89.7032 15.08850310  3616","INCLINATION":"53.2172","OBJECT_ID":"2021-104BD","MEAN_ANOMALY":"89.7032","TLE_LINE1":"1 49459U 21104BD  22053.91667824 -.00000562  00000-0 -17206-4 0  9999","OBJECT_NAME":"STARLINK-3141","COUNTRY_CODE":"US","EPHEMERIS_TYPE":"0","SITE":"AFETR","ELEMENT_SET_NO":"999","MEAN_MOTION_DOT":"-0.00000562","REV_AT_EPOCH":"361","LAUNCH_DATE":"2021-11-13","ARG_OF_PERICENTER":"47.8285","ECCENTRICITY":"0.00018420","GP_ID":"196685390","TIME_SYSTEM":"UTC","FILE":"3314780","REF_FRAME":"TEME","MEAN_MOTION":"15.08850310","PERIAPSIS":"538.440","APOAPSIS":"540.988","EPOCH":"2022-02-22T22:00:00.999936","PERIOD":"95.437","RA_OF_ASC_NODE":"4.1054","NORAD_CAT_ID":"49459","RCS_SIZE":"LARGE","MEAN_ELEMENT_THEORY":"SGP4","DECAY_DATE":null,"MEAN_MOTION_DDOT":"0.0000000000000","CLASSIFICATION_TYPE":"U","OBJECT_TYPE":"PAYLOAD"},{"MEAN_MOTION":"15.08827528","PERIAPSIS":"538.524","REF_FRAME":"TEME","EPOCH":"2022-02-22T22:00:00.999936","RA_OF_ASC_NODE":"4.1275","PERIOD":"95.438","APOAPSIS":"541.043","MEAN_ELEMENT_THEORY":"SGP4","RCS_SIZE":"LARGE","DECAY_DATE":null,"NORAD_CAT_ID":"49460","OBJECT_TYPE":"PAYLOAD","CLASSIFICATION_TYPE":"U","MEAN_MOTION_DDOT":"0.0000000000000","OBJECT_ID":"2021-104BE","INCLINATION":"53.2187","CENTER_NAME":"EARTH","BSTAR":"-0.00000178730000","TLE_LINE2":"2 49460  53.2187   4.1275 0001821  52.0253 105.5556 15.08827528  3601","SEMIMAJOR_AXIS":"6917.919","ELEMENT_SET_NO":"999","SITE":"AFETR","MEAN_MOTION_DOT":"-0.00000317","EPHEMERIS_TYPE":"0","OBJECT_NAME":"STARLINK-3140","TLE_LINE1":"1 49460U 21104BE  22053.91667824 -.00000317  00000-0 -17873-5 0  9990","MEAN_ANOMALY":"105.5556","COUNTRY_CODE":"US","ARG_OF_PERICENTER":"52.0253","LAUNCH_DATE":"2021-11-13","REV_AT_EPOCH":"360","TIME_SYSTEM":"UTC","FILE":"3314780","ECCENTRICITY":"0.00018210","GP_ID":"196685640"},{"REF_FRAME":"TEME","MEAN_MOTION":"15.08835452","PERIAPSIS":"538.475","APOAPSIS":"541.044","EPOCH":"2022-02-22T22:00:00.999936","RA_OF_ASC_NODE":"294.1613","PERIOD":"95.438","NORAD_CAT_ID":"49724","RCS_SIZE":"LARGE","MEAN_ELEMENT_THEORY":"SGP4","DECAY_DATE":null,"MEAN_MOTION_DDOT":"0.0000000000000","CLASSIFICATION_TYPE":"U","OBJECT_TYPE":"PAYLOAD","BSTAR":"-0.00071649000000","CENTER_NAME":"EARTH","SEMIMAJOR_AXIS":"6917.894","TLE_LINE2":"2 49724  53.2137 294.1613 0001857  56.7227 200.6383 15.08835452  3618","OBJECT_ID":"2021-115A","INCLINATION":"53.2137","TLE_LINE1":"1 49724U 21115A   22053.91667824 -.00011672  00000-0 -71649-3 0  9990","MEAN_ANOMALY":"200.6383","OBJECT_NAME":"STARLINK-3219","COUNTRY_CODE":"US","EPHEMERIS_TYPE":"0","SITE":"AFETR","MEAN_MOTION_DOT":"-0.00011672","ELEMENT_SET_NO":"999","REV_AT_EPOCH":"361","LAUNCH_DATE":"2021-12-02","ARG_OF_PERICENTER":"56.7227","ECCENTRICITY":"0.00018570","GP_ID":"196686416","FILE":"3314780","TIME_SYSTEM":"UTC"},{"EPHEMERIS_TYPE":"0","ELEMENT_SET_NO":"999","SITE":"AFETR","MEAN_MOTION_DOT":"-0.00031196","TLE_LINE1":"1 49725U 21115B   22053.91667824 -.00031196  00000-0 -19487-2 0  9995","MEAN_ANOMALY":"25.6049","OBJECT_NAME":"STARLINK-3218","COUNTRY_CODE":"US","INCLINATION":"53.2152","OBJECT_ID":"2021-115B","BSTAR":"-0.00194870000000","CENTER_NAME":"EARTH","SEMIMAJOR_AXIS":"6917.778","TLE_LINE2":"2 49725  53.2152 294.1060 0001682  51.6464  25.6049 15.08873419  3614","TIME_SYSTEM":"UTC","FILE":"3314780","ECCENTRICITY":"0.00016820","GP_ID":"196686667","ARG_OF_PERICENTER":"51.6464","LAUNCH_DATE":"2021-12-02","REV_AT_EPOCH":"361","EPOCH":"2022-02-22T22:00:00.999936","RA_OF_ASC_NODE":"294.1060","PERIOD":"95.435","APOAPSIS":"540.807","MEAN_MOTION":"15.08873419","PERIAPSIS":"538.480","REF_FRAME":"TEME","OBJECT_TYPE":"PAYLOAD","MEAN_MOTION_DDOT":"0.0000000000000","CLASSIFICATION_TYPE":"U","RCS_SIZE":"LARGE","MEAN_ELEMENT_THEORY":"SGP4","DECAY_DATE":null,"NORAD_CAT_ID":"49725"},{"RCS_SIZE":"LARGE","MEAN_ELEMENT_THEORY":"SGP4","DECAY_DATE":null,"NORAD_CAT_ID":"49726","OBJECT_TYPE":"PAYLOAD","MEAN_MOTION_DDOT":"0.0000000000000","CLASSIFICATION_TYPE":"U","MEAN_MOTION":"15.08850302","PERIAPSIS":"537.814","REF_FRAME":"TEME","EPOCH":"2022-02-22T22:00:00.999936","PERIOD":"95.437","RA_OF_ASC_NODE":"304.1162","APOAPSIS":"541.614","ARG_OF_PERICENTER":"45.1206","LAUNCH_DATE":"2021-12-02","REV_AT_EPOCH":"358","TIME_SYSTEM":"UTC","FILE":"3314780","ECCENTRICITY":"0.00027470","GP_ID":"196685415","INCLINATION":"53.2173","OBJECT_ID":"2021-115C","BSTAR":"-0.00107940000000","CENTER_NAME":"EARTH","SEMIMAJOR_AXIS":"6917.849","TLE_LINE2":"2 49726  53.2173 304.1162 0002747  45.1206 242.3750 15.08850302  3587","EPHEMERIS_TYPE":"0","ELEMENT_SET_NO":"999","SITE":"AFETR","MEAN_MOTION_DOT":"-0.00017432","MEAN_ANOMALY":"242.3750","TLE_LINE1":"1 49726U 21115C   22053.91667824 -.00017432  00000-0 -10794-2 0  9995","OBJECT_NAME":"STARLINK-3237","COUNTRY_CODE":"US"},{"APOAPSIS":"541.590","PERIOD":"95.438","RA_OF_ASC_NODE":"304.1270","EPOCH":"2022-02-22T22:00:00.999936","REF_FRAME":"TEME","PERIAPSIS":"537.904","MEAN_MOTION":"15.08839494","CLASSIFICATION_TYPE":"U","MEAN_MOTION_DDOT":"0.0000000000000","OBJECT_TYPE":"PAYLOAD","NORAD_CAT_ID":"49727","DECAY_DATE":null,"MEAN_ELEMENT_THEORY":"SGP4","RCS_SIZE":"LARGE","COUNTRY_CODE":"US","OBJECT_NAME":"STARLINK-3242","TLE_LINE1":"1 49727U 21115D   22053.91667824 -.00016784  00000-0 -10388-2 0  9994","MEAN_ANOMALY":"218.6211","SITE":"AFETR","ELEMENT_SET_NO":"999","MEAN_MOTION_DOT":"-0.00016784","EPHEMERIS_TYPE":"0","TLE_LINE2":"2 49727  53.2163 304.1270 0002664  48.8455 218.6211 15.08839494  3588","SEMIMAJOR_AXIS":"6917.882","CENTER_NAME":"EARTH","BSTAR":"-0.00103880000000","OBJECT_ID":"2021-115D","INCLINATION":"53.2163","GP_ID":"196685665","ECCENTRICITY":"0.00026640","TIME_SYSTEM":"UTC","FILE":"3314780","REV_AT_EPOCH":"358","LAUNCH_DATE":"2021-12-02","ARG_OF_PERICENTER":"48.8455"},{"PERIAPSIS":"537.526","MEAN_MOTION":"15.08860086","REF_FRAME":"TEME","RA_OF_ASC_NODE":"304.1298","PERIOD":"95.436","EPOCH":"2022-02-22T22:00:00.999936","APOAPSIS":"541.842","DECAY_DATE":null,"RCS_SIZE":"LARGE","MEAN_ELEMENT_THEORY":"SGP4","NORAD_CAT_ID":"49728","OBJECT_TYPE":"PAYLOAD","MEAN_MOTION_DDOT":"0.0000000000000","CLASSIFICATION_TYPE":"U","OBJECT_ID":"2021-115E","INCLINATION":"53.2165","SEMIMAJOR_AXIS":"6917.819","TLE_LINE2":"2 49728  53.2165 304.1298 0003120  57.0183 190.5094 15.08860086  3587","BSTAR":"-0.00150850000000","CENTER_NAME":"EARTH","EPHEMERIS_TYPE":"0","SITE":"AFETR","MEAN_MOTION_DOT":"-0.00024232","ELEMENT_SET_NO":"999","COUNTRY_CODE":"US","TLE_LINE1":"1 49728U 21115E   22053.91667824 -.00024232  00000-0 -15085-2 0  9991","MEAN_ANOMALY":"190.5094","OBJECT_NAME":"STARLINK-3240","ARG_OF_PERICENTER":"57.0183","REV_AT_EPOCH":"358","LAUNCH_DATE":"2021-12-02","TIME_SYSTEM":"UTC","FILE":"3314780","GP_ID":"196686917","ECCENTRICITY":"0.00031200"}];
